[{"OBJECT_NAME":"STARLINK-6245","OBJECT_ID":"2023-088AH","EPOCH":"2026-03-09T22:00:01.999584","MEAN_MOTION":15.11050888,"ECCENTRICITY":0.00020399,"INCLINATION":42.9997,"RA_OF_ASC_NODE":93.1432,"ARG_OF_PERICENTER":277.4364,"MEAN_ANOMALY":128.4537,"EPHEMERIS_TYPE":0,"CLASSIFICATION_TYPE":"U","NORAD_CAT_ID":57079,"ELEMENT_SET_NO":999,"REV_AT_EPOCH":572,"BSTAR":0.0036049084,"MEAN_MOTION_DOT":0.00061661,"MEAN_MOTION_DDOT":0},{"OBJECT_NAME":"CZ-4B DEB","OBJECT_ID":"2006-046E","EPOCH":"2026-03-09T15:05:34.126944","MEAN_MOTION":15.05038248,"ECCENTRICITY":0.0035443,"INCLINATION":97.6504,"RA_OF_ASC_NODE":126.4986,"ARG_OF_PERICENTER":210.976,"MEAN_ANOMALY":148.9377,"EPHEMERIS_TYPE":0,"CLASSIFICATION_TYPE":"U","NORAD_CAT_ID":29509,"ELEMENT_SET_NO":999,"REV_AT_EPOCH":5351,"BSTAR":0.00027248,"MEAN_MOTION_DOT":3.86e-5,"MEAN_MOTION_DDOT":0}]
